FENGYUN 1C DEB          
1 38824U 99025EVQ 24354.77349461  .00007370  00000+0  40897-2 0  9995
2 38824  99.2918 109.5122 0102514 122.4545 238.6586 14.08815999640867
FENGYUN 1C DEB          
1 38827U 99025EVT 24366.31101419  .00008924  00000+0  26408-2 0  9998
2 38827  98.4187  33.9985 0224207 259.7952  97.7879 14.30053138561030
FENGYUN 1C DEB          
1 38829U 99025EVV 24363.34337415  .00002501  00000+0  14790-2 0  9993
2 38829  98.7719  23.1577 0040942 296.4699  63.2274 14.08211391592136
FENGYUN 1C DEB          
1 38832U 99025EVY 24359.37140298  .00003749  00000+0  23739-2 0  9994
2 38832  99.2990  30.4491 0086477 294.7123  64.5058 14.02796064588003
FENGYUN 1C DEB          
1 39537U 99025EWE 24365.67302576  .00008897  00000+0  73253-2 0  9991
2 39537  99.1352 154.9874 0182129 190.7751 168.9478 13.82004520544583
FENGYUN 1C DEB          
1 39541U 99025EWJ 24364.85958413  .00003383  00000+0  15971-2 0  9990
2 39541  98.7181  46.9586 0072131 355.5073   4.5447 14.19084777566311
FENGYUN 1C DEB          
1 39543U 99025EWL 24365.39276980  .00003291  00000+0  25692-2 0  9993
2 39543  99.0806  48.9613 0340738 334.3938  24.0668 13.68999810444302
FENGYUN 1C DEB          
1 39544U 99025EWM 24366.47583260  .00002305  00000+0  14429-2 0  9997
2 39544  98.7836 251.2317 0053888 261.0610  98.4455 14.04874839519926
FENGYUN 1C DEB          
1 40688U 99025EWU 24362.16414054  .00001268  00000+0  11031-2 0  9997
2 40688  98.9285 162.4437 0142549 255.2673 103.2648 13.83320856250696
FENGYUN 1C DEB          
1 40689U 99025EWV 24366.57135682  .00005589  00000+0  51310-2 0  9998
2 40689  99.1182 299.3349 0315470 280.3804  76.1929 13.63112783501648
FENGYUN 1C DEB          
1 40690U 99025EWW 24363.32701141  .00001220  00000+0  90562-3 0  9990
2 40690  99.4577  23.8922 0093607  12.3818 347.9612 13.95125017565020
FENGYUN 1C DEB          
1 40691U 99025EWX 24366.36281360  .00000534  00000+0  43948-3 0  9997
2 40691  99.0996  41.0037 0129601 169.3799 191.0144 13.89736983506246
FENGYUN 1C DEB          
1 40695U 99025EXB 24365.00142114  .00004048  00000+0  64118-3 0  9990
2 40695  99.4299  75.8412 0286714 283.9204  73.0253 14.49063641268263
FENGYUN 1C DEB          
1 40696U 99025EXC 24359.73947250  .00000359  00000+0  28390-3 0  9991
2 40696  98.9288 350.3110 0079351 248.3406 110.9292 13.96469952507523
FENGYUN 1C DEB          
1 41003U 99025EXH 24366.49370548  .00040171  00000+0  86366-2 0  9997
2 41003  98.9828 248.9466 0096251 274.7263  84.2945 14.55489167473542
FENGYUN 1C DEB          
1 41006U 99025EXL 24366.56530190  .00009728  00000+0  78601-2 0  9995
2 41006 102.3655 123.1541 0192437 109.2317 252.9755 13.82317994527007
FENGYUN 1C DEB          
1 41008U 99025EXN 24365.71524249  .00002403  00000+0  14050-2 0  9992
2 41008  99.2699 167.5625 0506841 329.2810  27.9542 13.59661749517261
FENGYUN 1C DEB          
1 41011U 99025EXR 24366.29724514  .00011791  00000+0  20649-2 0  9998
2 41011  99.2019  18.6623 0321347 298.7620  58.1635 14.39437218521669
FENGYUN 1C DEB          
1 41018U 99025EXY 24366.06028388  .00003520  00000+0  41014-2 0  9996
2 41018  99.9273 304.0839 0308261 259.1079  97.5231 13.51005655834918
FENGYUN 1C DEB          
1 41822U 99025EXZ 24365.90634679  .00009982  00000+0  44933-2 0  9998
2 41822  98.7570  68.3879 0058295 146.0678 214.4250 14.21545933424394
FENGYUN 1C DEB          
1 41823U 99025EYA 24365.82646936  .00009575  00000+0  43965-2 0  9991
2 41823  98.7482  66.4558 0057743 151.8282 208.6039 14.20538587424275
FENGYUN 1C DEB          
1 41824U 99025EYB 24365.70373185  .00009626  00000+0  43756-2 0  9997
2 41824  98.7568  66.3731 0060350 152.2790 208.1625 14.20982524424258
FENGYUN 1C DEB          
1 41825U 99025EYC 24364.67172013  .00009780  00000+0  43855-2 0  9991
2 41825  98.7668  69.4612 0058884 149.5338 210.9282 14.21734368423967
FENGYUN 1C DEB          
1 41826U 99025EYD 24364.46109977  .00007946  00000+0  36357-2 0  9999
2 41826  98.7592  66.9984 0058710 151.4101 209.0316 14.20751082424099
FENGYUN 1C DEB          
1 41827U 99025EYE 24365.72736228  .00009904  00000+0  44252-2 0  9994
2 41827  98.7658  70.5905 0058313 139.8943 220.6560 14.21931827423930
FENGYUN 1C DEB          
1 41828U 99025EYF 24366.74535104  .00033857  00000+0  11042-1 0  9992
2 41828  98.9230 111.5321 0047489 127.0582 233.4961 14.37850360424675
FENGYUN 1C DEB          
1 41829U 99025EYG 24366.65046622  .00009752  00000+0  43652-2 0  9995
2 41829  98.7667  71.5125 0059152 142.8905 217.6384 14.21813870423837
FENGYUN 1C DEB          
1 41830U 99025EYH 24364.43538758  .00009540  00000+0  41973-2 0  9996
2 41830  98.7756  71.1239 0057991 148.1195 212.3513 14.22752040423141
FENGYUN 1C DEB          
1 41831U 99025EYJ 24366.66779999  .00010049  00000+0  45356-2 0  9993
2 41831  98.7594  69.8132 0058820 144.0068 216.5093 14.21388314423376
FENGYUN 1C DEB          
1 41832U 99025EYK 24364.66464397  .00008876  00000+0  40467-2 0  9998
2 41832  98.7541  65.3937 0058326 153.4783 206.9399 14.20913276424016
