OBJECT_NAME,OBJECT_ID,EPOCH,MEAN_MOTION,ECCENTRICITY,INCLINATION,RA_OF_ASC_NODE,ARG_OF_PERICENTER,MEAN_ANOMALY,EPHEMERIS_TYPE,CLASSIFICATION_TYPE,NORAD_CAT_ID,ELEMENT_SET_NO,REV_AT_EPOCH,BSTAR,MEAN_MOTION_DOT,MEAN_MOTION_DDOT
FENGYUN 1C DEB,1999-025EVQ,2024-12-19T18:33:49.934304,14.08815999,.0102514,99.2918,109.5122,122.4545,238.6586,0,U,38824,999,64086,.40897E-2,.737E-4,0
FENGYUN 1C DEB,1999-025EVT,2024-12-31T07:27:51.626016,14.30053138,.0224207,98.4187,33.9985,259.7952,97.7879,0,U,38827,999,56103,.26408E-2,.8924E-4,0
FENGYUN 1C DEB,1999-025EVV,2024-12-28T08:14:27.526560,14.08211391,.0040942,98.7719,23.1577,296.4699,63.2274,0,U,38829,999,59213,.1479E-2,.2501E-4,0
FENGYUN 1C DEB,1999-025EVY,2024-12-24T08:54:49.217472,14.02796064,.0086477,99.2990,30.4491,294.7123,64.5058,0,U,38832,999,58800,.23739E-2,.3749E-4,0
FENGYUN 1C DEB,1999-025EWE,2024-12-30T16:09:09.425664,13.82004520,.0182129,99.1352,154.9874,190.7751,168.9478,0,U,39537,999,54458,.73253E-2,.8897E-4,0
FENGYUN 1C DEB,1999-025EWJ,2024-12-29T20:37:48.068832,14.19084777,.0072131,98.7181,46.9586,355.5073,4.5447,0,U,39541,999,56631,.15971E-2,.3383E-4,0
FENGYUN 1C DEB,1999-025EWL,2024-12-30T09:25:35.310720,13.68999810,.0340738,99.0806,48.9613,334.3938,24.0668,0,U,39543,999,44430,.25692E-2,.3291E-4,0
FENGYUN 1C DEB,1999-025EWM,2024-12-31T11:25:11.936640,14.04874839,.0053888,98.7836,251.2317,261.0610,98.4455,0,U,39544,999,51992,.14429E-2,.2305E-4,0
FENGYUN 1C DEB,1999-025EWU,2024-12-27T03:56:21.742656,13.83320856,.0142549,98.9285,162.4437,255.2673,103.2648,0,U,40688,999,25069,.11031E-2,.1268E-4,0
FENGYUN 1C DEB,1999-025EWV,2024-12-31T13:42:45.229248,13.63112783,.031547,99.1182,299.3349,280.3804,76.1929,0,U,40689,999,50164,.5131E-2,.5589E-4,0
FENGYUN 1C DEB,1999-025EWW,2024-12-28T07:50:53.785824,13.95125017,.0093607,99.4577,23.8922,12.3818,347.9612,0,U,40690,999,56502,.90562E-3,.122E-4,0
FENGYUN 1C DEB,1999-025EWX,2024-12-31T08:42:27.095040,13.89736983,.0129601,99.0996,41.0037,169.3799,191.0144,0,U,40691,999,50624,.43948E-3,.534E-5,0
FENGYUN 1C DEB,1999-025EXB,2024-12-30T00:02:02.786496,14.49063641,.0286714,99.4299,75.8412,283.9204,73.0253,0,U,40695,999,26826,.64118E-3,.4048E-4,0
FENGYUN 1C DEB,1999-025EXC,2024-12-24T17:44:50.424000,13.96469952,.0079351,98.9288,350.3110,248.3406,110.9292,0,U,40696,999,50752,.2839E-3,.359E-5,0
FENGYUN 1C DEB,1999-025EXH,2024-12-31T11:50:56.153472,14.55489167,.0096251,98.9828,248.9466,274.7263,84.2945,0,U,41003,999,47354,.86366E-2,.40171E-3,0
FENGYUN 1C DEB,1999-025EXL,2024-12-31T13:34:02.084160,13.82317994,.0192437,102.3655,123.1541,109.2317,252.9755,0,U,41006,999,52700,.78601E-2,.9728E-4,0
FENGYUN 1C DEB,1999-025EXN,2024-12-30T17:09:56.951136,13.59661749,.0506841,99.2699,167.5625,329.2810,27.9542,0,U,41008,999,51726,.1405E-2,.2403E-4,0
FENGYUN 1C DEB,1999-025EXR,2024-12-31T07:08:01.980096,14.39437218,.0321347,99.2019,18.6623,298.7620,58.1635,0,U,41011,999,52166,.20649E-2,.11791E-3,0
FENGYUN 1C DEB,1999-025EXY,2024-12-31T01:26:48.527232,13.51005655,.0308261,99.9273,304.0839,259.1079,97.5231,0,U,41018,999,83491,.41014E-2,.352E-4,0
FENGYUN 1C DEB,1999-025EXZ,2024-12-30T21:45:08.362656,14.21545933,.0058295,98.7570,68.3879,146.0678,214.4250,0,U,41822,999,42439,.44933E-2,.9982E-4,0
FENGYUN 1C DEB,1999-025EYA,2024-12-30T19:50:06.952704,14.20538587,.0057743,98.7482,66.4558,151.8282,208.6039,0,U,41823,999,42427,.43965E-2,.9575E-4,0
FENGYUN 1C DEB,1999-025EYB,2024-12-30T16:53:22.431840,14.20982524,.006035,98.7568,66.3731,152.2790,208.1625,0,U,41824,999,42425,.43756E-2,.9626E-4,0
FENGYUN 1C DEB,1999-025EYC,2024-12-29T16:07:16.619232,14.21734368,.0058884,98.7668,69.4612,149.5338,210.9282,0,U,41825,999,42396,.43855E-2,.978E-4,0
FENGYUN 1C DEB,1999-025EYD,2024-12-29T11:03:59.020128,14.20751082,.005871,98.7592,66.9984,151.4101,209.0316,0,U,41826,999,42409,.36357E-2,.7946E-4,0
FENGYUN 1C DEB,1999-025EYE,2024-12-30T17:27:24.100992,14.21931827,.0058313,98.7658,70.5905,139.8943,220.6560,0,U,41827,999,42393,.44252E-2,.9904E-4,0
FENGYUN 1C DEB,1999-025EYF,2024-12-31T17:53:18.329856,14.37850360,.0047489,98.9230,111.5321,127.0582,233.4961,0,U,41828,999,42467,.11042E-1,.33857E-3,0
FENGYUN 1C DEB,1999-025EYG,2024-12-31T15:36:40.281408,14.21813870,.0059152,98.7667,71.5125,142.8905,217.6384,0,U,41829,999,42383,.43652E-2,.9752E-4,0
FENGYUN 1C DEB,1999-025EYH,2024-12-29T10:26:57.486912,14.22752040,.0057991,98.7756,71.1239,148.1195,212.3513,0,U,41830,999,42314,.41973E-2,.954E-4,0
FENGYUN 1C DEB,1999-025EYJ,2024-12-31T16:01:37.919136,14.21388314,.005882,98.7594,69.8132,144.0068,216.5093,0,U,41831,999,42337,.45356E-2,.10049E-3,0
FENGYUN 1C DEB,1999-025EYK,2024-12-29T15:57:05.239008,14.20913276,.0058326,98.7541,65.3937,153.4783,206.9399,0,U,41832,999,42401,.40467E-2,.8876E-4,0
